[{"OBJECT_NAME":"STARLINK-1446","OBJECT_ID":"2020-035G","EPOCH":"2026-03-09T22:34:36.621696","MEAN_MOTION":15.42911141,"ECCENTRICITY":3.749e-5,"INCLINATION":53.0259,"RA_OF_ASC_NODE":358.185,"ARG_OF_PERICENTER":267.9178,"MEAN_ANOMALY":92.1784,"EPHEMERIS_TYPE":0,"CLASSIFICATION_TYPE":"U","NORAD_CAT_ID":45663,"ELEMENT_SET_NO":999,"REV_AT_EPOCH":31971,"BSTAR":0.00054126708,"MEAN_MOTION_DOT":0.00023817,"MEAN_MOTION_DDOT":0},{"OBJECT_NAME":"OBJECT AL","OBJECT_ID":"2023-091AL","EPOCH":"2026-03-09T22:53:40.653600","MEAN_MOTION":15.4037964,"ECCENTRICITY":0.00073468,"INCLINATION":97.5155,"RA_OF_ASC_NODE":140.236,"ARG_OF_PERICENTER":61.3849,"MEAN_ANOMALY":298.8135,"EPHEMERIS_TYPE":0,"CLASSIFICATION_TYPE":"U","NORAD_CAT_ID":57200,"ELEMENT_SET_NO":999,"REV_AT_EPOCH":14970,"BSTAR":0.00078905328,"MEAN_MOTION_DOT":0.00031911,"MEAN_MOTION_DDOT":0}]
